NORAD_CAT_ID,OBJECT_NAME,OBJECT_TYPE,EPOCH,MEAN_MOTION,ECCENTRICITY,INCLINATION,RA_OF_ASC_NODE,ARG_OF_PERICENTER,MEAN_ANOMALY,BSTAR,MEAN_MOTION_DOT,MEAN_MOTION_DDOT,TLE_LINE0,TLE_LINE1,TLE_LINE2,SEMIMAJOR_AXIS,PERIOD,APOGEE,PERIGEE,DECAYED
56773.0,STARLINK-6296,PAYLOAD,2024-08-18 05:37:10,14.98550177,0.0003602,70.0025,297.8885,205.9835,154.1143,0.0033122,0.00039882,0.0,0 STARLINK-6296,1 56773U 23078G   24231.23414404  .00039882  00000-0  33122-2 0  9995,2 56773  70.0025 297.8885 0003602 205.9835 154.1143 14.98550177 68510,6949.512,96.093,573.88,568.874,0.0
56773.0,STARLINK-6296,PAYLOAD,2024-08-18 12:01:38,14.98616801,0.0002167,70.0062,297.2215,263.9634,96.1279,0.0050683,0.00061366,0.0,0 STARLINK-6296,1 56773U 23078G   24231.50114012  .00061366  00000-0  50683-2 0  9990,2 56773  70.0062 297.2215 0002167 263.9634  96.1279 14.98616801 68813,6949.306,96.089,572.677,569.665,0.0
56773.0,STARLINK-6296,PAYLOAD,2024-08-19 04:03:19,14.98332953,0.0003094,70.0012,295.5294,270.3145,89.766,-0.00024464,-3.011e-05,0.0,0 STARLINK-6296,1 56773U 23078G   24232.16897279 -.00003011  00000-0 -24464-3 0  9990,2 56773  70.0012 295.5294 0003094 270.3145  89.7660 14.98332953 68911,6950.184,96.107,574.199,569.898,0.0
56773.0,STARLINK-6296,PAYLOAD,2024-08-19 13:40:07,14.98334105,0.0003088,69.9998,294.5175,269.2656,90.8149,-0.00012496,-1.584e-05,0.0,0 STARLINK-6296,1 56773U 23078G   24232.56953004 -.00001584  00000-0 -12496-3 0  9998,2 56773  69.9998 294.5175 0003088 269.2656  90.8149 14.98334105 68719,6950.18,96.107,574.191,569.899,0.0
56773.0,STARLINK-6296,PAYLOAD,2024-08-20 04:05:02,14.98591867,0.0004012,69.9993,293.0013,258.8323,101.2385,0.0041042,0.00049563,0.0,0 STARLINK-6296,1 56773U 23078G   24233.17016962  .00049563  00000-0  41042-2 0  9994,2 56773  69.9993 293.0013 0004012 258.8323 101.2385 14.98591867 69060,6949.383,96.09,574.036,568.46,0.0
56773.0,STARLINK-6296,PAYLOAD,2024-08-20 12:00:00,14.98446495,0.0002887,69.9999,292.1708,276.064,61.6723,-0.01441,-0.00168471,0.0,0 STARLINK-6296,1 56773U 23078G   24233.50001157 -.00168471  00000-0 -14410-1 0  9991,2 56773  69.9999 292.1708 0002887 276.0640  61.6723 14.98446495 69116,6949.833,96.1,573.704,569.691,0.0
56773.0,STARLINK-6296,PAYLOAD,2024-08-20 14:00:01,14.98403639,0.0002897,69.9998,291.9605,278.2659,148.9378,-0.011278,-0.00132402,0.0,0 STARLINK-6296,1 56773U 23078G   24233.58335648 -.00132402  00000-0 -11278-1 0  9998,2 56773  69.9998 291.9605 0002897 278.2659 148.9378 14.98403639  5773,6949.965,96.102,573.844,569.817,0.0
56773.0,STARLINK-6296,PAYLOAD,2024-08-20 18:30:23,14.98453634,0.0002442,69.9944,291.4866,301.9928,58.0994,0.0025054,0.00030025,0.0,0 STARLINK-6296,1 56773U 23078G   24233.77110646  .00030025  00000-0  25054-2 0  9992,2 56773  69.9944 291.4866 0002442 301.9928  58.0994 14.98453634 69154,6949.811,96.099,573.373,569.978,0.0
56773.0,STARLINK-6296,PAYLOAD,2024-08-21 04:07:20,14.98256535,0.0002649,69.9936,290.4767,316.7795,43.3155,-0.0023986,-0.00028542,0.0,0 STARLINK-6296,1 56773U 23078G   24234.17175960 -.00028542  00000-0 -23986-2 0  9992,2 56773  69.9936 290.4767 0002649 316.7795  43.3155 14.98256535 69213,6950.42,96.112,574.126,570.444,0.0
56773.0,STARLINK-6296,PAYLOAD,2024-08-21 12:08:00,14.98324927,0.0002873,69.999,289.6355,275.819,84.2642,-0.00011934,-1.516e-05,0.0,0 STARLINK-6296,1 56773U 23078G   24234.50556095 -.00001516  00000-0 -11934-3 0  9994,2 56773  69.9990 289.6355 0002873 275.8190  84.2642 14.98324927 69260,6950.209,96.107,574.07,570.077,0.0
56773.0,STARLINK-6296,PAYLOAD,2024-08-21 13:44:08,14.98326599,0.000287,69.9991,289.4673,275.4046,84.6785,-8.6573e-05,-1.126e-05,0.0,0 STARLINK-6296,1 56773U 23078G   24234.57232020 -.00001126  00000-0 -86573-4 0  9999,2 56773  69.9991 289.4673 0002870 275.4046  84.6785 14.98326599 69017,6950.203,96.107,574.063,570.074,0.0
56773.0,STARLINK-6296,PAYLOAD,2024-08-22 04:09:20,14.98337856,0.0002764,69.9989,287.9523,275.5456,84.5388,-0.0005796,-7.003e-05,0.0,0 STARLINK-6296,1 56773U 23078G   24235.17315571 -.00007003  00000-0 -57960-3 0  9996,2 56773  69.9989 287.9523 0002764 275.5456  84.5388 14.98337856 69363,6950.169,96.106,573.955,570.113,0.0
